      2.10          N: GNSS NAV DATA                        RINEX VERSION / TYPE
fic2rin                                 12/03/2023 00:18:28 PGM / RUN BY / DATE
                                                            END OF HEADER
8  23 12  2  1 59 44.0 -.154874287546D-03 -.193267624127D-11  .000000000000D+00
     .140000000000D+02  .102187500000D+03  .454233206351D-08  .236702415235D+01
     .531971454620D-05  .900297705084D-02  .865757465363D-05  .515379270363D+04
     .525584000000D+06 -.258907675743D-06 -.208545465069D+01  .558793544769D-08
     .955918162240D+00  .209250000000D+03  .282269284140D+00 -.792783022595D-08
    -.696457581682D-10  .100000000000D+01  .229000000000D+04  .000000000000D+00
     .240000000000D+01  .000000000000D+00  .512227416039D-08  .140000000000D+02
     .518400000000D+06  .400000000000D+01
15 23 12  3  0  0  0.0  .103062484413D-03  .375166564481D-11  .000000000000D+00
     .770000000000D+02 -.703750000000D+02  .497913597243D-08  .366538324798D+00
    -.353716313839D-05  .154593830230D-01  .897608697414D-05  .515357995987D+04
     .000000000000D+00 -.290572643280D-06  .818827983221D+00  .167638063431D-07
     .933775949139D+00  .195906250000D+03  .127671515828D+01 -.843570852398D-08
     .760745973838D-10  .100000000000D+01  .229100000000D+04  .000000000000D+00
     .240000000000D+01  .000000000000D+00 -.102445483208D-07  .770000000000D+02
    -.720000000000D+04  .400000000000D+01
31 23 12  3  0  0  0.0 -.226274598390D-03 -.341060513165D-12  .000000000000D+00
     .103000000000D+03 -.125000000000D+01  .479305679291D-08 -.230451553536D+01
    -.352039933205D-06  .106284427457D-01  .757724046707D-05  .515365147781D+04
     .000000000000D+00  .124797224998D-06  .203530137751D+01 -.154599547386D-06
     .954023298580D+00  .228375000000D+03  .632852367516D+00 -.793711632704D-08
     .371444043564D-09  .100000000000D+01  .229100000000D+04  .000000000000D+00
     .340000000000D+01  .000000000000D+00 -.135041773319D-07  .103000000000D+03
    -.720000000000D+04  .400000000000D+01
30 23 12  3  0  0  0.0 -.461796298623D-03  .420641299570D-11  .000000000000D+00
     .840000000000D+02  .100625000000D+02  .517735851491D-08 -.154624488657D+01
     .372529029846D-06  .660144002177D-02  .716000795364D-05  .515372310448D+04
     .000000000000D+00  .838190317154D-07  .201779278627D+01 -.894069671631D-07
     .935113945718D+00  .223875000000D+03 -.255367763017D+01 -.820998483597D-08
     .302512600864D-09  .100000000000D+01  .229100000000D+04  .000000000000D+00
     .240000000000D+01  .000000000000D+00  .372529029846D-08  .840000000000D+02
    -.720000000000D+04  .400000000000D+01
26 23 12  3  0  0  0.0  .212294049561D-03 -.295585778076D-11  .000000000000D+00
     .540000000000D+02  .148750000000D+02  .533272212928D-08 -.310659994864D+01
     .745058059692D-06  .862259045243D-02  .746361911297D-05  .515378967857D+04
     .000000000000D+00 -.856816768646D-07  .298591700153D+01 -.894069671631D-07
     .932690806247D+00  .223312500000D+03  .502508025602D+00 -.816569727693D-08
    -.183579075377D-09  .100000000000D+01  .229100000000D+04  .000000000000D+00
     .240000000000D+01  .000000000000D+00  .698491930962D-08  .540000000000D+02
    -.720000000000D+04  .400000000000D+01
17 23 12  3  0  0  0.0  .722551252693D-03 -.568434188608D-12  .000000000000D+00
     .600000000000D+02  .588750000000D+02  .419517474587D-08  .143220300091D+01
     .280514359474D-05  .138118512696D-01  .778771936893D-05  .515362875557D+04
     .000000000000D+00  .949949026108D-07 -.211452070291D+01 -.327825546265D-06
     .971543607800D+00  .233593750000D+03 -.136668351711D+01 -.784639826255D-08
    -.139291516336D-09  .100000000000D+01  .229100000000D+04  .000000000000D+00
     .240000000000D+01  .000000000000D+00 -.111758708954D-07  .600000000000D+02
    -.720000000000D+04  .400000000000D+01
25 23 12  3  0  0  0.0  .479917041957D-03  .159161572810D-11  .000000000000D+00
     .820000000000D+02  .145625000000D+02  .488913222341D-08 -.229362557464D+01
     .627711415291D-06  .115270536626D-01  .714324414730D-05  .515363996315D+04
     .000000000000D+00  .158324837685D-06  .304507870627D+01 -.279396772385D-07
     .951944841627D+00  .234875000000D+03  .105814614470D+01 -.791890128260D-08
    -.111433213069D-09  .100000000000D+01  .229100000000D+04  .000000000000D+00
     .240000000000D+01  .000000000000D+00  .558793544769D-08  .820000000000D+02
    -.720000000000D+04  .400000000000D+01
18 23 12  3  0  0  0.0 -.495794694871D-03 -.103455022327D-10  .000000000000D+00
     .520000000000D+02  .501250000000D+02  .426053461123D-08 -.672384627221D+00
     .247731804848D-05  .383385934401D-02  .393018126488D-05  .515364424324D+04
     .000000000000D+00  .931322574615D-07 -.110989885254D+01 -.521540641785D-07
     .974289998038D+00  .311843750000D+03 -.302827253367D+01 -.813069581897D-08
     .117862052285D-10  .100000000000D+01  .229100000000D+04  .000000000000D+00
     .240000000000D+01  .000000000000D+00 -.838190317154D-08  .308000000000D+03
    -.720000000000D+04  .400000000000D+01
28 23 12  3  0  0  0.0 -.602463260293D-04 -.943600753089D-11  .000000000000D+00
     .113000000000D+03 -.115625000000D+01  .461233497941D-08 -.295721271724D+01
    -.236555933952D-06  .763448420912D-03  .766478478909D-05  .515353874016D+04
     .000000000000D+00  .279396772385D-07  .197938910642D+01  .111758708954D-07
     .961091333152D+00  .228500000000D+03  .168074179753D+01 -.793925927344D-08
     .298226708054D-09  .100000000000D+01  .229100000000D+04  .000000000000D+00
     .240000000000D+01  .000000000000D+00 -.931322574615D-08  .369000000000D+03
    -.720000000000D+04  .400000000000D+01
23 23 12  3  0  0  0.0  .109177082777D-03  .670752342558D-11  .000000000000D+00
     .970000000000D+02 -.761875000000D+02  .409338479162D-08 -.168611245799D+01
    -.385940074921D-05  .389006698970D-02  .455975532532D-05  .515369762993D+04
     .000000000000D+00 -.875443220139D-07 -.109952571737D+00 -.391155481339D-07
     .976958803878D+00  .301375000000D+03 -.302296092682D+01 -.796318884164D-08
    -.507163982558D-10  .100000000000D+01  .229100000000D+04  .000000000000D+00
     .240000000000D+01  .000000000000D+00 -.838190317154D-08  .609000000000D+03
    -.720000000000D+04  .400000000000D+01
14 23 12  3  0  0  0.0  .260049942881D-03  .106865627458D-10  .000000000000D+00
     .235000000000D+03  .157500000000D+02  .496984987134D-08 -.217163939866D+01
     .745058059692D-06  .372859905474D-02  .751577317715D-05  .515367692757D+04
     .000000000000D+00  .000000000000D+00  .308792575255D+01 -.106170773506D-06
     .947465766827D+00  .229625000000D+03 -.295348153737D+01 -.813855328913D-08
    -.204294223960D-09  .100000000000D+01  .229100000000D+04  .000000000000D+00
     .240000000000D+01  .000000000000D+00 -.791624188423D-08  .100300000000D+04
    -.720000000000D+04  .400000000000D+01
31 23 12  2 23 59 44.0 -.226273201406D-03 -.341060513165D-12  .000000000000D+00
     .000000000000D+00 -.125000000000D+01  .479305679291D-08 -.230684931687D+01
    -.350177288055D-06  .106284421636D-01  .757724046707D-05  .515365147591D+04
     .604784000000D+06  .124797224998D-06  .215571675983D+01 -.154599547386D-06
     .954023301506D+00  .228375000000D+03  .632852383608D+00 -.793711632704D-08
     .371444043564D-09  .100000000000D+01  .229000000000D+04  .000000000000D+00
     .240000000000D+01  .000000000000D+00 -.135041773319D-07  .000000000000D+00
     .599070000000D+06  .400000000000D+01
8  23 12  2 23 59 44.0 -.155027024448D-03 -.193267624127D-11  .000000000000D+00
     .000000000000D+00  .630937500000D+02  .461126350621D-08  .135128396220D+01
     .355206429958D-05  .900989968795D-02  .843591988087D-05  .515379264450D+04
     .604784000000D+06 -.558793544769D-08 -.208608453347D+01  .119209289551D-06
     .955906012705D+00  .212593750000D+03  .282833821301D+00 -.811176645906D-08
    -.325370695853D-09  .100000000000D+01  .229000000000D+04  .000000000000D+00
     .240000000000D+01  .000000000000D+00  .512227416039D-08  .000000000000D+00
     .599190000000D+06  .400000000000D+01
